[{"OBJECT_NAME":"STARLINK-5273","OBJECT_ID":"2022-141F","EPOCH":"2026-03-09T06:28:36.172704","MEAN_MOTION":15.08842661,"ECCENTRICITY":0.0001459,"INCLINATION":53.219,"RA_OF_ASC_NODE":16.0168,"ARG_OF_PERICENTER":101.9594,"MEAN_ANOMALY":258.1562,"EPHEMERIS_TYPE":0,"CLASSIFICATION_TYPE":"U","NORAD_CAT_ID":54162,"ELEMENT_SET_NO":999,"REV_AT_EPOCH":18565,"BSTAR":-2.1088094e-5,"MEAN_MOTION_DOT":-6.24e-6,"MEAN_MOTION_DDOT":0},{"OBJECT_NAME":"IRIDIUM 33 DEB","OBJECT_ID":"1997-051QE","EPOCH":"2026-03-07T09:35:18.798432","MEAN_MOTION":15.07266806,"ECCENTRICITY":0.0013423,"INCLINATION":86.3519,"RA_OF_ASC_NODE":312.8742,"ARG_OF_PERICENTER":171.2899,"MEAN_ANOMALY":188.8573,"EPHEMERIS_TYPE":0,"CLASSIFICATION_TYPE":"U","NORAD_CAT_ID":35484,"ELEMENT_SET_NO":999,"REV_AT_EPOCH":63287,"BSTAR":0.0040001,"MEAN_MOTION_DOT":0.00060878,"MEAN_MOTION_DDOT":0}]
